ONEWEB-0226             
1 48793U 21045AC  23352.80779200 -.00000053  00000+0 -17522-3 0  9990
2 48793  87.9007  80.6381 0001525 127.7224 232.4045 13.15546844124523
ONEWEB-0224             
1 48794U 21045AD  23352.77135563  .00000155  00000+0  37742-3 0  9992
2 48794  87.9017  80.6569 0002299 107.4713 252.6669 13.15547683124449
ONEWEB-0233             
1 48795U 21045AE  23352.76741133 -.00002382  00000+0 -63611-2 0  9997
2 48795  87.8958  80.6757 0001705 115.7657 244.3650 13.15562378124460
ONEWEB-0190             
1 48796U 21045AF  23352.76343119  .00000027  00000+0  37724-4 0  9990
2 48796  87.9000  80.6384 0002073 142.3216 217.8060 13.15547505124535
ONEWEB-0236             
1 48797U 21045AG  23352.78087393  .00000831  00000+0  21725-2 0  9997
2 48797  87.9016  80.6190 0001963 113.2046 246.9291 13.15545866125542
ONEWEB-0248             
1 48798U 21045AH  23352.79353676  .00000071  00000+0  15487-3 0  9994
2 48798  87.9005  80.6233 0002411 124.5579 235.5779 13.15546764124580
ONEWEB-0225             
1 48799U 21045AJ  23352.81571378 -.00000186  00000+0 -52761-3 0  9994
2 48799  87.9000  80.6259 0001832 121.0088 239.1222 13.15547724124598
ONEWEB-0215             
1 48800U 21045AK  23352.70955194  .00000129  00000+0  30728-3 0  9991
2 48800  87.9004  80.6276 0002287 132.2259 227.9065 13.15549790124453
